FENGYUN 1C DEB          
1 32457U 99025DBV 17345.32481389  .00000612  00000-0  94907-3 0  9995
2 32457 100.3453  23.4519 0432600 330.8443  26.9136 13.23324237505842
